STARLINK-31852          
1 59841U 24097G   26068.54289265 -.00000631  00000+0 -13424-4 0  9991
2 59841  43.0008 267.4595 0001369 258.3775 101.6923 15.27576223101989
STRIX-4                 
1 60352U 24137A   26068.65404516  .00020530  00000+0  71820-3 0  9996
2 60352  43.0134 129.8162 0016840   5.2738 354.8289 15.29026223 88766
